{
    "links": {
        "self": "http://www.neowsapp.com/rest/v1/neo/3802587?api_key=iIulBulltgU6a56xZRHN4H3l9WmuAYTsLGpBGhQ2"
    },
    "id": "3802587",
    "neo_reference_id": "3802587",
    "name": "(2018 GN4)",
    "designation": "2018 GN4",
    "nasa_jpl_url": "http://ssd.jpl.nasa.gov/sbdb.cgi?sstr=3802587",
    "absolute_magnitude_h": 22.6,
    "estimated_diameter": {
        "kilometers": {
            "estimated_diameter_min": 0.0802703167,
            "estimated_diameter_max": 0.1794898848
        },
        "meters": {
            "estimated_diameter_min": 80.2703167283,
            "estimated_diameter_max": 179.4898847799
        },
        "miles": {
            "estimated_diameter_min": 0.049877647,
            "estimated_diameter_max": 0.1115298092
        },
        "feet": {
            "estimated_diameter_min": 263.3540659348,
            "estimated_diameter_max": 588.8775935812
        }
    },
    "is_potentially_hazardous_asteroid": false,
    "close_approach_data": [
        {
            "close_approach_date": "2018-03-24",
            "close_approach_date_full": "2018-Mar-24 16:43",
            "epoch_date_close_approach": 1521909780000,
            "relative_velocity": {
                "kilometers_per_second": "14.7776579141",
                "kilometers_per_hour": "53199.5684908212",
                "miles_per_hour": "33056.1429880883"
            },
            "miss_distance": {
                "astronomical": "0.0934779518",
                "lunar": "36.3629232502",
                "kilometers": "13984102.481242666",
                "miles": "8689318.3527981508"
            },
            "orbiting_body": "Earth"
        },
        {
            "close_approach_date": "2100-10-05",
            "close_approach_date_full": "2100-Oct-05 10:20",
            "epoch_date_close_approach": 4126414800000,
            "relative_velocity": {
                "kilometers_per_second": "21.1100682548",
                "kilometers_per_hour": "75996.2457172469",
                "miles_per_hour": "47221.1116791415"
            },
            "miss_distance": {
                "astronomical": "0.278046953",
                "lunar": "108.160264717",
                "kilometers": "41595231.92879011",
                "miles": "25846078.621959118"
            },
            "orbiting_body": "Earth"
        },
        {
            "close_approach_date": "2105-09-25",
            "close_approach_date_full": "2105-Sep-25 13:42",
            "epoch_date_close_approach": 4283329320000,
            "relative_velocity": {
                "kilometers_per_second": "27.0374676683",
                "kilometers_per_hour": "97334.8836057173",
                "miles_per_hour": "60480.1114271192"
            },
            "miss_distance": {
                "astronomical": "0.4839848408",
                "lunar": "188.2701030712",
                "kilometers": "72403101.295969096",
                "miles": "44989200.9683456848"
            },
            "orbiting_body": "Earth"
        }
    ],
    "orbital_data": {
        "orbit_id": "5",
        "orbit_determination_date": "2018-04-22 06:59:33",
        "first_observation_date": "2018-04-12",
        "last_observation_date": "2018-04-21",
        "data_arc_in_days": 9,
        "observations_used": 32,
        "orbit_uncertainty": "8",
        "minimum_orbit_intersection": ".0188781",
        "jupiter_tisserand_invariant": "4.622",
        "epoch_osculation": "2458225.5",
        "eccentricity": ".4507532577782139",
        "semi_major_axis": "1.40034182185325",
        "inclination": "11.76627822501771",
        "ascending_node_longitude": "20.90243213275522",
        "orbital_period": "605.2705117564748",
        "perihelion_distance": ".7691331836498184",
        "perihelion_argument": "80.76351615417913",
        "aphelion_distance": "2.031550460056681",
        "perihelion_time": "2458147.069691993080",
        "mean_anomaly": "46.64841642549946",
        "mean_motion": ".5947753822589045",
        "equinox": "J2000",
        "orbit_class": {
            "orbit_class_type": "APO",
            "orbit_class_description": "Near-Earth asteroid orbits which cross the Earth’s orbit similar to that of 1862 Apollo",
            "orbit_class_range": "a (semi-major axis) > 1.0 AU; q (perihelion) < 1.017 AU"
        }
    },
    "is_sentry_object": false
}